STARLINK-2701           
1 48656U 21044U   26042.74764651  .00000921  00000+0  43219-4 0  9998
2 48656  53.1591 234.3512 0001436  78.2710 281.8452 15.30206479259850
STARLINK-2734           
1 48657U 21044V   26042.74447644  .00003055  00000+0  11520-3 0  9999
2 48657  53.1596 234.3540 0001239  99.8051 260.3090 15.30205681259859
STARLINK-2647           
1 48658U 21044W   26042.73815470  .00004868  00000+0  17636-3 0  9992
2 48658  53.1623 234.3854 0001446 100.5221 259.5943 15.30207162259851
STARLINK-2717           
1 48659U 21044X   26042.93095671  .00014278  00000+0  49306-3 0  9993
2 48659  53.1592 233.4888 0000881  77.3008 282.8092 15.30213624259887
STARLINK-2726           
1 48662U 21044AA  26042.77574870  .00003162  00000+0  23103-3 0  9999
2 48662  53.0539 227.9496 0001384  88.7822 271.3326 15.06409920259942
STARLINK-2667           
1 48663U 21044AB  26042.72348697  .00006897  00000+0  24476-3 0  9993
2 48663  53.1594 224.4440 0001387  94.0202 266.0957 15.30203385259991
STARLINK-2666           
1 48666U 21044AE  26042.72790306  .00001703  00000+0  13323-3 0  9994
2 48666  53.0556 228.6461 0001712  97.6655 262.4529 15.06387647259928
STARLINK-2735           
1 48667U 21044AF  26042.76469620  .00002086  00000+0  15885-3 0  9991
2 48667  53.0551 227.9988 0001252  92.8573 267.2560 15.06408614259943
STARLINK-2738           
1 48668U 21044AG  26042.72667090  .00008578  00000+0  30132-3 0  9993
2 48668  53.1582 224.5651 0001162  98.0732 262.0400 15.30208787259991
STARLINK-2707           
1 48669U 21044AH  26042.91668981  .00056791  00000+0  19180-2 0  9994
2 48669  53.1584 223.8164 0001207  86.9448 188.1575 15.30148124  5735
STARLINK-2763           
1 48670U 21044AJ  26042.91668981  .00058664  00000+0  19794-2 0  9998
2 48670  53.1578 223.9102 0001480  83.7944 156.3750 15.30163869  5793
STARLINK-2745           
1 48671U 21044AK  26042.71312484  .00000027  00000+0  20689-4 0  9998
2 48671  53.0557 228.5373 0001592  88.6336 271.4835 15.06406296259920
STARLINK-2705           
1 48672U 21044AL  26042.68369697  .00004666  00000+0  16537-3 0  9992
2 48672  53.1612 225.1280 0001437  68.2471 291.8683 15.31031147259975
STARLINK-2711           
1 48673U 21044AM  26042.87526367  .00002138  00000+0  16230-3 0  9995
2 48673  53.0578 227.4986 0001450  74.6817 285.4332 15.06411674259951
STARLINK-2712           
1 48674U 21044AN  26042.74996057  .00001051  00000+0  89412-4 0  9995
2 48674  53.0565 228.1790 0001544  88.1552 271.9614 15.06404527259939
STARLINK-2746           
1 48676U 21044AQ  26042.73152857  .00003542  00000+0  25664-3 0  9993
2 48676  53.0563 228.1457 0001558  80.9395 279.1770 15.06385365259930
