[{"OBJECT_NAME":"STARLINK-2701","OBJECT_ID":"2021-044U","EPOCH":"2026-02-11T17:56:36.658464","MEAN_MOTION":15.30206479,"ECCENTRICITY":0.00014362,"INCLINATION":53.1591,"RA_OF_ASC_NODE":234.3512,"ARG_OF_PERICENTER":78.271,"MEAN_ANOMALY":281.8452,"EPHEMERIS_TYPE":0,"CLASSIFICATION_TYPE":"U","NORAD_CAT_ID":48656,"ELEMENT_SET_NO":999,"REV_AT_EPOCH":25985,"BSTAR":4.3218677e-5,"MEAN_MOTION_DOT":9.21e-6,"MEAN_MOTION_DDOT":0},{"OBJECT_NAME":"STARLINK-2734","OBJECT_ID":"2021-044V","EPOCH":"2026-02-11T17:52:02.764416","MEAN_MOTION":15.30205681,"ECCENTRICITY":0.00012396,"INCLINATION":53.1596,"RA_OF_ASC_NODE":234.354,"ARG_OF_PERICENTER":99.8051,"MEAN_ANOMALY":260.309,"EPHEMERIS_TYPE":0,"CLASSIFICATION_TYPE":"U","NORAD_CAT_ID":48657,"ELEMENT_SET_NO":999,"REV_AT_EPOCH":25985,"BSTAR":0.00011520282,"MEAN_MOTION_DOT":3.055e-5,"MEAN_MOTION_DDOT":0},{"OBJECT_NAME":"STARLINK-2647","OBJECT_ID":"2021-044W","EPOCH":"2026-02-11T17:42:56.566080","MEAN_MOTION":15.30207162,"ECCENTRICITY":0.00014464,"INCLINATION":53.1623,"RA_OF_ASC_NODE":234.3854,"ARG_OF_PERICENTER":100.5221,"MEAN_ANOMALY":259.5943,"EPHEMERIS_TYPE":0,"CLASSIFICATION_TYPE":"U","NORAD_CAT_ID":48658,"ELEMENT_SET_NO":999,"REV_AT_EPOCH":25985,"BSTAR":0.00017635575,"MEAN_MOTION_DOT":4.868e-5,"MEAN_MOTION_DDOT":0},{"OBJECT_NAME":"STARLINK-2717","OBJECT_ID":"2021-044X","EPOCH":"2026-02-11T22:20:34.659744","MEAN_MOTION":15.30213624,"ECCENTRICITY":8.819e-5,"INCLINATION":53.1592,"RA_OF_ASC_NODE":233.4888,"ARG_OF_PERICENTER":77.3008,"MEAN_ANOMALY":282.8092,"EPHEMERIS_TYPE":0,"CLASSIFICATION_TYPE":"U","NORAD_CAT_ID":48659,"ELEMENT_SET_NO":999,"REV_AT_EPOCH":25988,"BSTAR":0.00049306007,"MEAN_MOTION_DOT":0.00014278,"MEAN_MOTION_DDOT":0},{"OBJECT_NAME":"STARLINK-2726","OBJECT_ID":"2021-044AA","EPOCH":"2026-02-11T18:37:04.687680","MEAN_MOTION":15.0640992,"ECCENTRICITY":0.00013842,"INCLINATION":53.0539,"RA_OF_ASC_NODE":227.9496,"ARG_OF_PERICENTER":88.7822,"MEAN_ANOMALY":271.3326,"EPHEMERIS_TYPE":0,"CLASSIFICATION_TYPE":"U","NORAD_CAT_ID":48662,"ELEMENT_SET_NO":999,"REV_AT_EPOCH":25994,"BSTAR":0.00023102893,"MEAN_MOTION_DOT":3.162e-5,"MEAN_MOTION_DDOT":0},{"OBJECT_NAME":"STARLINK-2667","OBJECT_ID":"2021-044AB","EPOCH":"2026-02-11T17:21:49.274208","MEAN_MOTION":15.30203385,"ECCENTRICITY":0.00013872,"INCLINATION":53.1594,"RA_OF_ASC_NODE":224.444,"ARG_OF_PERICENTER":94.0202,"MEAN_ANOMALY":266.0957,"EPHEMERIS_TYPE":0,"CLASSIFICATION_TYPE":"U","NORAD_CAT_ID":48663,"ELEMENT_SET_NO":999,"REV_AT_EPOCH":25999,"BSTAR":0.00024476225,"MEAN_MOTION_DOT":6.897e-5,"MEAN_MOTION_DDOT":0},{"OBJECT_NAME":"STARLINK-2666","OBJECT_ID":"2021-044AE","EPOCH":"2026-02-11T17:28:10.824384","MEAN_MOTION":15.06387647,"ECCENTRICITY":0.00017124,"INCLINATION":53.0556,"RA_OF_ASC_NODE":228.6461,"ARG_OF_PERICENTER":97.6655,"MEAN_ANOMALY":262.4529,"EPHEMERIS_TYPE":0,"CLASSIFICATION_TYPE":"U","NORAD_CAT_ID":48666,"ELEMENT_SET_NO":999,"REV_AT_EPOCH":25992,"BSTAR":0.00013323444,"MEAN_MOTION_DOT":1.703e-5,"MEAN_MOTION_DDOT":0},{"OBJECT_NAME":"STARLINK-2735","OBJECT_ID":"2021-044AF","EPOCH":"2026-02-11T18:21:09.751680","MEAN_MOTION":15.06408614,"ECCENTRICITY":0.00012524,"INCLINATION":53.0551,"RA_OF_ASC_NODE":227.9988,"ARG_OF_PERICENTER":92.8573,"MEAN_ANOMALY":267.256,"EPHEMERIS_TYPE":0,"CLASSIFICATION_TYPE":"U","NORAD_CAT_ID":48667,"ELEMENT_SET_NO":999,"REV_AT_EPOCH":25994,"BSTAR":0.00015884777,"MEAN_MOTION_DOT":2.086e-5,"MEAN_MOTION_DDOT":0},{"OBJECT_NAME":"STARLINK-2738","OBJECT_ID":"2021-044AG","EPOCH":"2026-02-11T17:26:24.365760","MEAN_MOTION":15.30208787,"ECCENTRICITY":0.00011626,"INCLINATION":53.1582,"RA_OF_ASC_NODE":224.5651,"ARG_OF_PERICENTER":98.0732,"MEAN_ANOMALY":262.04,"EPHEMERIS_TYPE":0,"CLASSIFICATION_TYPE":"U","NORAD_CAT_ID":48668,"ELEMENT_SET_NO":999,"REV_AT_EPOCH":25999,"BSTAR":0.00030132475,"MEAN_MOTION_DOT":8.578e-5,"MEAN_MOTION_DDOT":0},{"OBJECT_NAME":"STARLINK-2707","OBJECT_ID":"2021-044AH","EPOCH":"2026-02-11T22:00:01.999584","MEAN_MOTION":15.30148124,"ECCENTRICITY":0.0001207,"INCLINATION":53.1584,"RA_OF_ASC_NODE":223.8164,"ARG_OF_PERICENTER":86.9448,"MEAN_ANOMALY":188.1575,"EPHEMERIS_TYPE":0,"CLASSIFICATION_TYPE":"U","NORAD_CAT_ID":48669,"ELEMENT_SET_NO":999,"REV_AT_EPOCH":573,"BSTAR":0.001918021,"MEAN_MOTION_DOT":0.00056791,"MEAN_MOTION_DDOT":0},{"OBJECT_NAME":"STARLINK-2763","OBJECT_ID":"2021-044AJ","EPOCH":"2026-02-11T22:00:01.999584","MEAN_MOTION":15.30163869,"ECCENTRICITY":0.00014808,"INCLINATION":53.1578,"RA_OF_ASC_NODE":223.9102,"ARG_OF_PERICENTER":83.7944,"MEAN_ANOMALY":156.375,"EPHEMERIS_TYPE":0,"CLASSIFICATION_TYPE":"U","NORAD_CAT_ID":48670,"ELEMENT_SET_NO":999,"REV_AT_EPOCH":579,"BSTAR":0.0019794102,"MEAN_MOTION_DOT":0.00058664,"MEAN_MOTION_DDOT":0},{"OBJECT_NAME":"STARLINK-2745","OBJECT_ID":"2021-044AK","EPOCH":"2026-02-11T17:06:53.986176","MEAN_MOTION":15.06406296,"ECCENTRICITY":0.00015921,"INCLINATION":53.0557,"RA_OF_ASC_NODE":228.5373,"ARG_OF_PERICENTER":88.6336,"MEAN_ANOMALY":271.4835,"EPHEMERIS_TYPE":0,"CLASSIFICATION_TYPE":"U","NORAD_CAT_ID":48671,"ELEMENT_SET_NO":999,"REV_AT_EPOCH":25992,"BSTAR":2.0688757e-5,"MEAN_MOTION_DOT":2.7e-7,"MEAN_MOTION_DDOT":0},{"OBJECT_NAME":"STARLINK-2705","OBJECT_ID":"2021-044AL","EPOCH":"2026-02-11T16:24:31.418208","MEAN_MOTION":15.31031147,"ECCENTRICITY":0.0001437,"INCLINATION":53.1612,"RA_OF_ASC_NODE":225.128,"ARG_OF_PERICENTER":68.2471,"MEAN_ANOMALY":291.8683,"EPHEMERIS_TYPE":0,"CLASSIFICATION_TYPE":"U","NORAD_CAT_ID":48672,"ELEMENT_SET_NO":999,"REV_AT_EPOCH":25997,"BSTAR":0.00016537231,"MEAN_MOTION_DOT":4.666e-5,"MEAN_MOTION_DDOT":0},{"OBJECT_NAME":"STARLINK-2711","OBJECT_ID":"2021-044AM","EPOCH":"2026-02-11T21:00:22.781088","MEAN_MOTION":15.06411674,"ECCENTRICITY":0.00014501,"INCLINATION":53.0578,"RA_OF_ASC_NODE":227.4986,"ARG_OF_PERICENTER":74.6817,"MEAN_ANOMALY":285.4332,"EPHEMERIS_TYPE":0,"CLASSIFICATION_TYPE":"U","NORAD_CAT_ID":48673,"ELEMENT_SET_NO":999,"REV_AT_EPOCH":25995,"BSTAR":0.00016230114,"MEAN_MOTION_DOT":2.138e-5,"MEAN_MOTION_DDOT":0},{"OBJECT_NAME":"STARLINK-2712","OBJECT_ID":"2021-044AN","EPOCH":"2026-02-11T17:59:56.593248","MEAN_MOTION":15.06404527,"ECCENTRICITY":0.00015441,"INCLINATION":53.0565,"RA_OF_ASC_NODE":228.179,"ARG_OF_PERICENTER":88.1552,"MEAN_ANOMALY":271.9614,"EPHEMERIS_TYPE":0,"CLASSIFICATION_TYPE":"U","NORAD_CAT_ID":48674,"ELEMENT_SET_NO":999,"REV_AT_EPOCH":25993,"BSTAR":8.9412403e-5,"MEAN_MOTION_DOT":1.051e-5,"MEAN_MOTION_DDOT":0},{"OBJECT_NAME":"STARLINK-2746","OBJECT_ID":"2021-044AQ","EPOCH":"2026-02-11T17:33:24.068448","MEAN_MOTION":15.06385365,"ECCENTRICITY":0.00015589,"INCLINATION":53.0563,"RA_OF_ASC_NODE":228.1457,"ARG_OF_PERICENTER":80.9395,"MEAN_ANOMALY":279.177,"EPHEMERIS_TYPE":0,"CLASSIFICATION_TYPE":"U","NORAD_CAT_ID":48676,"ELEMENT_SET_NO":999,"REV_AT_EPOCH":25993,"BSTAR":0.00025664216,"MEAN_MOTION_DOT":3.542e-5,"MEAN_MOTION_DDOT":0}]
